start=new Date('2022-03-30T00:00:00.000Z').valueOf();
sats=[{"SITE":"AFETR","RCS_SIZE":"LARGE","CENTER_NAME":"EARTH","CLASSIFICATION_TYPE":"U","GP_ID":"200021650","RA_OF_ASC_NODE":"288.7261","LAUNCH_DATE":"2022-01-19","DECAY_DATE":null,"ECCENTRICITY":"0.00031790","INCLINATION":"53.2128","PERIOD":"91.538","MEAN_MOTION":"15.73125022","FILE":"3379484","MEAN_ELEMENT_THEORY":"SGP4","MEAN_ANOMALY":"70.3563","OBJECT_NAME":"STARLINK-3362","OBJECT_TYPE":"PAYLOAD","EPHEMERIS_TYPE":"0","COUNTRY_CODE":"US","TIME_SYSTEM":"UTC","APOAPSIS":"352.113","NORAD_CAT_ID":"51108","MEAN_MOTION_DOT":"0.00087486","BSTAR":"0.00062317000000","MEAN_MOTION_DDOT":"0.0000000000000","EPOCH":"2022-03-29T22:00:00.999936","TLE_LINE1":"1 51108U 22005E   22088.91667824  .00087486  00000-0  62317-3 0  9992","REV_AT_EPOCH":"366","REF_FRAME":"TEME","PERIAPSIS":"347.835","OBJECT_ID":"2022-005E","ARG_OF_PERICENTER":"12.7229","TLE_LINE2":"2 51108  53.2128 288.7261 0003179  12.7229  70.3563 15.73125022  3662","ELEMENT_SET_NO":"999","SEMIMAJOR_AXIS":"6728.109"},{"ARG_OF_PERICENTER":"43.8131","ELEMENT_SET_NO":"999","TLE_LINE2":"2 51109  53.2169 288.4600 0001835  43.8131 135.3850 15.61812553  3666","SEMIMAJOR_AXIS":"6760.558","REF_FRAME":"TEME","REV_AT_EPOCH":"366","PERIAPSIS":"381.183","OBJECT_ID":"2022-005F","MEAN_MOTION_DDOT":"0.0000000000000","BSTAR":"-0.00264060000000","EPOCH":"2022-03-29T22:00:00.999936","TLE_LINE1":"1 51109U 22005F   22088.91667824 -.00227177  00000-0 -26406-2 0  9996","MEAN_MOTION_DOT":"-0.00227177","EPHEMERIS_TYPE":"0","COUNTRY_CODE":"US","APOAPSIS":"383.664","NORAD_CAT_ID":"51109","TIME_SYSTEM":"UTC","MEAN_ELEMENT_THEORY":"SGP4","FILE":"3379484","MEAN_ANOMALY":"135.3850","OBJECT_NAME":"STARLINK-3358","OBJECT_TYPE":"PAYLOAD","LAUNCH_DATE":"2022-01-19","INCLINATION":"53.2169","ECCENTRICITY":"0.00018350","DECAY_DATE":null,"MEAN_MOTION":"15.61812553","PERIOD":"92.201","SITE":"AFETR","RCS_SIZE":"LARGE","CLASSIFICATION_TYPE":"U","CENTER_NAME":"EARTH","RA_OF_ASC_NODE":"288.4600","GP_ID":"200021901"},{"MEAN_ELEMENT_THEORY":"SGP4","FILE":"3379484","MEAN_ANOMALY":"77.9207","OBJECT_NAME":"STARLINK-3344","OBJECT_TYPE":"PAYLOAD","EPHEMERIS_TYPE":"0","COUNTRY_CODE":"US","NORAD_CAT_ID":"51110","APOAPSIS":"352.285","TIME_SYSTEM":"UTC","SITE":"AFETR","RCS_SIZE":"LARGE","CENTER_NAME":"EARTH","CLASSIFICATION_TYPE":"U","RA_OF_ASC_NODE":"288.7225","GP_ID":"200022149","LAUNCH_DATE":"2022-01-19","INCLINATION":"53.2128","ECCENTRICITY":"0.00034960","DECAY_DATE":null,"MEAN_MOTION":"15.73139273","PERIOD":"91.537","REF_FRAME":"TEME","REV_AT_EPOCH":"366","PERIAPSIS":"347.581","OBJECT_ID":"2022-005G","ARG_OF_PERICENTER":"6.4519","ELEMENT_SET_NO":"999","TLE_LINE2":"2 51110  53.2128 288.7225 0003496   6.4519  77.9207 15.73139273  3660","SEMIMAJOR_AXIS":"6728.068","MEAN_MOTION_DOT":"0.00087312","BSTAR":"0.00062154000000","MEAN_MOTION_DDOT":"0.0000000000000","EPOCH":"2022-03-29T22:00:00.999936","TLE_LINE1":"1 51110U 22005G   22088.91667824  .00087312  00000-0  62154-3 0  9992"},{"GP_ID":"200021399","RA_OF_ASC_NODE":"288.7128","RCS_SIZE":"LARGE","SITE":"AFETR","CLASSIFICATION_TYPE":"U","CENTER_NAME":"EARTH","PERIOD":"91.538","MEAN_MOTION":"15.73124072","LAUNCH_DATE":"2022-01-19","DECAY_DATE":null,"INCLINATION":"53.2126","ECCENTRICITY":"0.00037880","OBJECT_NAME":"STARLINK-3173","OBJECT_TYPE":"PAYLOAD","FILE":"3379484","MEAN_ELEMENT_THEORY":"SGP4","MEAN_ANOMALY":"80.5893","TIME_SYSTEM":"UTC","NORAD_CAT_ID":"51111","APOAPSIS":"352.525","EPHEMERIS_TYPE":"0","COUNTRY_CODE":"US","MEAN_MOTION_DOT":"0.00088954","EPOCH":"2022-03-29T22:00:00.999936","TLE_LINE1":"1 51111U 22005H   22088.91667824  .00088954  00000-0  63340-3 0  9994","MEAN_MOTION_DDOT":"0.0000000000000","BSTAR":"0.00063340000000","OBJECT_ID":"2022-005H","REV_AT_EPOCH":"366","REF_FRAME":"TEME","PERIAPSIS":"347.428","SEMIMAJOR_AXIS":"6728.112","ARG_OF_PERICENTER":"8.1726","TLE_LINE2":"2 51111  53.2126 288.7128 0003788   8.1726  80.5893 15.73124072  3666","ELEMENT_SET_NO":"999"},{"MEAN_MOTION_DDOT":"0.0000000000000","BSTAR":"0.00062529000000","TLE_LINE1":"1 51112U 22005J   22088.91667824  .00087846  00000-0  62529-3 0  9992","EPOCH":"2022-03-29T22:00:00.999936","MEAN_MOTION_DOT":"0.00087846","TLE_LINE2":"2 51112  53.2124 288.7188 0003685   8.3616  76.6563 15.73138087  3668","ELEMENT_SET_NO":"999","ARG_OF_PERICENTER":"8.3616","SEMIMAJOR_AXIS":"6728.072","PERIAPSIS":"347.457","REV_AT_EPOCH":"366","REF_FRAME":"TEME","OBJECT_ID":"2022-005J","DECAY_DATE":null,"ECCENTRICITY":"0.00036850","INCLINATION":"53.2124","LAUNCH_DATE":"2022-01-19","PERIOD":"91.537","MEAN_MOTION":"15.73138087","CLASSIFICATION_TYPE":"U","CENTER_NAME":"EARTH","RCS_SIZE":"LARGE","SITE":"AFETR","GP_ID":"200021649","RA_OF_ASC_NODE":"288.7188","COUNTRY_CODE":"US","EPHEMERIS_TYPE":"0","TIME_SYSTEM":"UTC","NORAD_CAT_ID":"51112","APOAPSIS":"352.416","MEAN_ANOMALY":"76.6563","FILE":"3379484","MEAN_ELEMENT_THEORY":"SGP4","OBJECT_TYPE":"PAYLOAD","OBJECT_NAME":"STARLINK-3374"},{"RCS_SIZE":"LARGE","SITE":"AFETR","CLASSIFICATION_TYPE":"U","CENTER_NAME":"EARTH","RA_OF_ASC_NODE":"288.7186","GP_ID":"200022402","LAUNCH_DATE":"2022-01-19","ECCENTRICITY":"0.00031880","INCLINATION":"53.2131","DECAY_DATE":null,"MEAN_MOTION":"15.73111953","PERIOD":"91.538","MEAN_ELEMENT_THEORY":"SGP4","FILE":"3379484","MEAN_ANOMALY":"67.7498","OBJECT_NAME":"STARLINK-3372","OBJECT_TYPE":"PAYLOAD","EPHEMERIS_TYPE":"0","COUNTRY_CODE":"US","NORAD_CAT_ID":"51113","APOAPSIS":"352.156","TIME_SYSTEM":"UTC","MEAN_MOTION_DOT":"0.00089613","BSTAR":"0.00063841000000","MEAN_MOTION_DDOT":"0.0000000000000","EPOCH":"2022-03-29T22:00:00.999936","TLE_LINE1":"1 51113U 22005K   22088.91667824  .00089613  00000-0  63841-3 0  9995","REF_FRAME":"TEME","REV_AT_EPOCH":"366","PERIAPSIS":"347.866","OBJECT_ID":"2022-005K","ARG_OF_PERICENTER":"19.1393","ELEMENT_SET_NO":"999","TLE_LINE2":"2 51113  53.2131 288.7186 0003188  19.1393  67.7498 15.73111953  3666","SEMIMAJOR_AXIS":"6728.146"},{"ARG_OF_PERICENTER":"6.2015","TLE_LINE2":"2 51114  53.2130 288.7256 0003872   6.2015  77.5271 15.73169310  3660","ELEMENT_SET_NO":"999","SEMIMAJOR_AXIS":"6727.983","REV_AT_EPOCH":"366","REF_FRAME":"TEME","PERIAPSIS":"347.243","OBJECT_ID":"2022-005L","MEAN_MOTION_DDOT":"0.0000000000000","BSTAR":"0.00061539000000","EPOCH":"2022-03-29T22:00:00.999936","TLE_LINE1":"1 51114U 22005L   22088.91667824  .00086551  00000-0  61539-3 0  9996","MEAN_MOTION_DOT":"0.00086551","EPHEMERIS_TYPE":"0","COUNTRY_CODE":"US","TIME_SYSTEM":"UTC","NORAD_CAT_ID":"51114","APOAPSIS":"352.453","FILE":"3379484","MEAN_ELEMENT_THEORY":"SGP4","MEAN_ANOMALY":"77.5271","OBJECT_NAME":"STARLINK-3375","OBJECT_TYPE":"PAYLOAD","LAUNCH_DATE":"2022-01-19","DECAY_DATE":null,"ECCENTRICITY":"0.00038720","INCLINATION":"53.2130","PERIOD":"91.535","MEAN_MOTION":"15.73169310","SITE":"AFETR","RCS_SIZE":"LARGE","CLASSIFICATION_TYPE":"U","CENTER_NAME":"EARTH","GP_ID":"200022650","RA_OF_ASC_NODE":"288.7256"},{"EPOCH":"2022-03-29T22:00:00.999936","TLE_LINE1":"1 51115U 22005M   22088.91667824  .00085825  00000-0  61129-3 0  9995","MEAN_MOTION_DDOT":"0.0000000000000","BSTAR":"0.00061129000000","MEAN_MOTION_DOT":"0.00085825","SEMIMAJOR_AXIS":"6728.084","ARG_OF_PERICENTER":"11.2194","TLE_LINE2":"2 51115  53.2129 288.7149 0003402  11.2194  76.9311 15.73133935  3665","ELEMENT_SET_NO":"999","OBJECT_ID":"2022-005M","REV_AT_EPOCH":"366","REF_FRAME":"TEME","PERIAPSIS":"347.660","PERIOD":"91.537","MEAN_MOTION":"15.73133935","LAUNCH_DATE":"2022-01-19","DECAY_DATE":null,"ECCENTRICITY":"0.00034020","INCLINATION":"53.2129","GP_ID":"200020900","RA_OF_ASC_NODE":"288.7149","SITE":"AFETR","RCS_SIZE":"LARGE","CENTER_NAME":"EARTH","CLASSIFICATION_TYPE":"U","TIME_SYSTEM":"UTC","APOAPSIS":"352.237","NORAD_CAT_ID":"51115","EPHEMERIS_TYPE":"0","COUNTRY_CODE":"US","OBJECT_NAME":"STARLINK-3397","OBJECT_TYPE":"PAYLOAD","FILE":"3379484","MEAN_ELEMENT_THEORY":"SGP4","MEAN_ANOMALY":"76.9311"},{"RA_OF_ASC_NODE":"288.7189","GP_ID":"200021651","RCS_SIZE":"LARGE","SITE":"AFETR","CLASSIFICATION_TYPE":"U","CENTER_NAME":"EARTH","MEAN_MOTION":"15.73117955","PERIOD":"91.538","LAUNCH_DATE":"2022-01-19","ECCENTRICITY":"0.00032900","INCLINATION":"53.2109","DECAY_DATE":null,"OBJECT_NAME":"STARLINK-3243","OBJECT_TYPE":"PAYLOAD","MEAN_ELEMENT_THEORY":"SGP4","FILE":"3379484","MEAN_ANOMALY":"69.6421","NORAD_CAT_ID":"51116","APOAPSIS":"352.208","TIME_SYSTEM":"UTC","EPHEMERIS_TYPE":"0","COUNTRY_CODE":"US","MEAN_MOTION_DOT":"0.00087229","EPOCH":"2022-03-29T22:00:00.999936","TLE_LINE1":"1 51116U 22005N   22088.91667824  .00087229  00000-0  62155-3 0  9996","MEAN_MOTION_DDOT":"0.0000000000000","BSTAR":"0.00062155000000","OBJECT_ID":"2022-005N","REF_FRAME":"TEME","REV_AT_EPOCH":"366","PERIAPSIS":"347.781","SEMIMAJOR_AXIS":"6728.129","ARG_OF_PERICENTER":"15.9816","ELEMENT_SET_NO":"999","TLE_LINE2":"2 51116  53.2109 288.7189 0003290  15.9816  69.6421 15.73117955  3660"},{"COUNTRY_CODE":"US","EPHEMERIS_TYPE":"0","TIME_SYSTEM":"UTC","APOAPSIS":"352.456","NORAD_CAT_ID":"51117","MEAN_ANOMALY":"81.8610","FILE":"3379484","MEAN_ELEMENT_THEORY":"SGP4","OBJECT_TYPE":"PAYLOAD","OBJECT_NAME":"STARLINK-3391","DECAY_DATE":null,"ECCENTRICITY":"0.00036370","INCLINATION":"53.2127","LAUNCH_DATE":"2022-01-19","PERIOD":"91.538","MEAN_MOTION":"15.73112596","CENTER_NAME":"EARTH","CLASSIFICATION_TYPE":"U","SITE":"AFETR","RCS_SIZE":"LARGE","GP_ID":"200021902","RA_OF_ASC_NODE":"288.7091","TLE_LINE2":"2 51117  53.2127 288.7091 0003637   8.8093  81.8610 15.73112596  3668","ELEMENT_SET_NO":"999","ARG_OF_PERICENTER":"8.8093","SEMIMAJOR_AXIS":"6728.144","PERIAPSIS":"347.562","REV_AT_EPOCH":"366","REF_FRAME":"TEME","OBJECT_ID":"2022-005P","BSTAR":"0.00063805000000","MEAN_MOTION_DDOT":"0.0000000000000","TLE_LINE1":"1 51117U 22005P   22088.91667824  .00089571  00000-0  63805-3 0  9992","EPOCH":"2022-03-29T22:00:00.999936","MEAN_MOTION_DOT":"0.00089571"}];
